start=new Date('2022-10-21T00:00:00.000Z').valueOf();
sats=[{"EPOCH":"2022-10-20T22:00:00.999936","ARG_OF_PERICENTER":"53.7936","SEMIMAJOR_AXIS":"6895.806","CLASSIFICATION_TYPE":"U","RA_OF_ASC_NODE":"331.7746","RCS_SIZE":"LARGE","REF_FRAME":"TEME","TLE_LINE2":"2 53288  53.2175 331.7746 0001506  53.7936  60.9812 15.16090651  1301","NORAD_CAT_ID":"53288","MEAN_ANOMALY":"60.9812","ECCENTRICITY":"0.00015060","REV_AT_EPOCH":"130","OBJECT_ID":"2022-086AY","PERIOD":"94.981","MEAN_ELEMENT_THEORY":"SGP4","DECAY_DATE":null,"OBJECT_NAME":"STARLINK-4162","EPHEMERIS_TYPE":"0","BSTAR":"-0.05947900000000","TIME_SYSTEM":"UTC","LAUNCH_DATE":"2022-07-24","COUNTRY_CODE":"US","MEAN_MOTION_DOT":"-0.01073851","MEAN_MOTION_DDOT":"0.0000000000000","INCLINATION":"53.2175","MEAN_MOTION":"15.16090651","ELEMENT_SET_NO":"999","PERIAPSIS":"516.633","APOAPSIS":"518.710","GP_ID":"215727573","CENTER_NAME":"EARTH","OBJECT_TYPE":"PAYLOAD","TLE_LINE1":"1 53288U 22086AY  22293.91667824 -.01073851  00000-0 -59479-1 0  9997","FILE":"3626396","SITE":"AFETR"},{"PERIOD":"93.669","MEAN_ELEMENT_THEORY":"SGP4","OBJECT_NAME":"STARLINK-4176","DECAY_DATE":null,"BSTAR":"-0.03355800000000","EPHEMERIS_TYPE":"0","TIME_SYSTEM":"UTC","LAUNCH_DATE":"2022-07-24","COUNTRY_CODE":"US","ARG_OF_PERICENTER":"33.8937","EPOCH":"2022-10-20T22:00:00.999936","SEMIMAJOR_AXIS":"6832.166","CLASSIFICATION_TYPE":"U","RA_OF_ASC_NODE":"327.9910","REF_FRAME":"TEME","RCS_SIZE":"LARGE","TLE_LINE2":"2 53289  53.2175 327.9910 0001840  33.8937  85.8617 15.37323049  1305","NORAD_CAT_ID":"53289","MEAN_ANOMALY":"85.8617","ECCENTRICITY":"0.00018400","REV_AT_EPOCH":"130","OBJECT_ID":"2022-086AZ","APOAPSIS":"455.288","PERIAPSIS":"452.774","CENTER_NAME":"EARTH","GP_ID":"215727736","OBJECT_TYPE":"PAYLOAD","TLE_LINE1":"1 53289U 22086AZ  22293.91667824 -.01137260  00000-0 -33558-1 0  9993","FILE":"3626396","SITE":"AFETR","MEAN_MOTION_DOT":"-0.01137260","MEAN_MOTION_DDOT":"0.0000000000000","INCLINATION":"53.2175","MEAN_MOTION":"15.37323049","ELEMENT_SET_NO":"999"},{"MEAN_MOTION":"15.16680997","ELEMENT_SET_NO":"999","MEAN_MOTION_DOT":"-0.01073562","INCLINATION":"53.2175","MEAN_MOTION_DDOT":"0.0000000000000","GP_ID":"215728462","CENTER_NAME":"EARTH","FILE":"3626396","SITE":"AFETR","TLE_LINE1":"1 53290U 22086BA  22293.91667824 -.01073562  00000-0 -58461-1 0  9999","OBJECT_TYPE":"PAYLOAD","PERIAPSIS":"514.704","APOAPSIS":"517.060","TLE_LINE2":"2 53290  53.2175 331.7779 0001709  45.6920 102.0417 15.16680997  1305","NORAD_CAT_ID":"53290","MEAN_ANOMALY":"102.0417","OBJECT_ID":"2022-086BA","ECCENTRICITY":"0.00017090","REV_AT_EPOCH":"130","SEMIMAJOR_AXIS":"6894.017","ARG_OF_PERICENTER":"45.6920","EPOCH":"2022-10-20T22:00:00.999936","REF_FRAME":"TEME","RCS_SIZE":"LARGE","RA_OF_ASC_NODE":"331.7779","CLASSIFICATION_TYPE":"U","COUNTRY_CODE":"US","EPHEMERIS_TYPE":"0","BSTAR":"-0.05846100000000","PERIOD":"94.944","MEAN_ELEMENT_THEORY":"SGP4","OBJECT_NAME":"STARLINK-4149","DECAY_DATE":null,"TIME_SYSTEM":"UTC","LAUNCH_DATE":"2022-07-24"},{"MEAN_ANOMALY":"259.2376","NORAD_CAT_ID":"53291","TLE_LINE2":"2 53291  53.2175 327.8924 0003726 270.1469 259.2376 15.40287925  1308","OBJECT_ID":"2022-086BB","REV_AT_EPOCH":"130","ECCENTRICITY":"0.00037260","SEMIMAJOR_AXIS":"6823.396","ARG_OF_PERICENTER":"270.1469","EPOCH":"2022-10-20T22:00:00.999936","RCS_SIZE":"LARGE","REF_FRAME":"TEME","RA_OF_ASC_NODE":"327.8924","CLASSIFICATION_TYPE":"U","COUNTRY_CODE":"US","EPHEMERIS_TYPE":"0","BSTAR":"-0.03111000000000","OBJECT_NAME":"STARLINK-4166","DECAY_DATE":null,"PERIOD":"93.489","MEAN_ELEMENT_THEORY":"SGP4","LAUNCH_DATE":"2022-07-24","TIME_SYSTEM":"UTC","MEAN_MOTION":"15.40287925","ELEMENT_SET_NO":"999","MEAN_MOTION_DOT":"-0.01160903","MEAN_MOTION_DDOT":"0.0000000000000","INCLINATION":"53.2175","CENTER_NAME":"EARTH","GP_ID":"215727881","SITE":"AFETR","FILE":"3626396","TLE_LINE1":"1 53291U 22086BB  22293.91667824 -.01160903  00000-0 -31110-1 0  9998","OBJECT_TYPE":"PAYLOAD","APOAPSIS":"447.803","PERIAPSIS":"442.718"},{"EPOCH":"2022-10-20T22:00:00.999936","ARG_OF_PERICENTER":"49.4523","SEMIMAJOR_AXIS":"6892.471","CLASSIFICATION_TYPE":"U","RA_OF_ASC_NODE":"331.7804","REF_FRAME":"TEME","RCS_SIZE":"LARGE","NORAD_CAT_ID":"53292","TLE_LINE2":"2 53292  53.2175 331.7804 0001663  49.4523 126.5524 15.17191250  1306","MEAN_ANOMALY":"126.5524","ECCENTRICITY":"0.00016630","REV_AT_EPOCH":"130","OBJECT_ID":"2022-086BC","PERIOD":"94.912","MEAN_ELEMENT_THEORY":"SGP4","DECAY_DATE":null,"OBJECT_NAME":"STARLINK-4159","BSTAR":"-0.05759300000000","EPHEMERIS_TYPE":"0","TIME_SYSTEM":"UTC","LAUNCH_DATE":"2022-07-24","COUNTRY_CODE":"US","MEAN_MOTION_DOT":"-0.01073281","INCLINATION":"53.2175","MEAN_MOTION_DDOT":"0.0000000000000","MEAN_MOTION":"15.17191250","ELEMENT_SET_NO":"999","PERIAPSIS":"513.190","APOAPSIS":"515.482","GP_ID":"215727991","CENTER_NAME":"EARTH","OBJECT_TYPE":"PAYLOAD","TLE_LINE1":"1 53292U 22086BC  22293.91667824 -.01073281  00000-0 -57593-1 0  9994","FILE":"3626396","SITE":"AFETR"},{"LAUNCH_DATE":"2022-07-24","TIME_SYSTEM":"UTC","OBJECT_NAME":"STARLINK-4148","DECAY_DATE":null,"MEAN_ELEMENT_THEORY":"SGP4","PERIOD":"92.204","BSTAR":"-0.01323600000000","EPHEMERIS_TYPE":"0","COUNTRY_CODE":"US","RA_OF_ASC_NODE":"326.1000","CLASSIFICATION_TYPE":"U","REF_FRAME":"TEME","RCS_SIZE":"LARGE","EPOCH":"2022-10-20T22:00:00.999936","ARG_OF_PERICENTER":"81.5954","SEMIMAJOR_AXIS":"6760.735","REV_AT_EPOCH":"130","ECCENTRICITY":"0.00010070","OBJECT_ID":"2022-086BD","MEAN_ANOMALY":"250.3342","NORAD_CAT_ID":"53293","TLE_LINE2":"2 53293  53.2173 326.1000 0001007  81.5954 250.3342 15.61751524  1307","APOAPSIS":"383.280","PERIAPSIS":"381.919","OBJECT_TYPE":"PAYLOAD","TLE_LINE1":"1 53293U 22086BD  22293.91667824 -.01061450  00000-0 -13236-1 0  9996","SITE":"AFETR","FILE":"3626396","GP_ID":"215728154","CENTER_NAME":"EARTH","INCLINATION":"53.2173","MEAN_MOTION_DDOT":"0.0000000000000","MEAN_MOTION_DOT":"-0.01061450","ELEMENT_SET_NO":"999","MEAN_MOTION":"15.61751524"},{"APOAPSIS":"383.266","PERIAPSIS":"381.882","CENTER_NAME":"EARTH","GP_ID":"215728695","TLE_LINE1":"1 53294U 22086BE  22293.91667824 -.01061643  00000-0 -13234-1 0  9999","OBJECT_TYPE":"PAYLOAD","FILE":"3626396","SITE":"AFETR","MEAN_MOTION_DOT":"-0.01061643","MEAN_MOTION_DDOT":"0.0000000000000","INCLINATION":"53.2174","MEAN_MOTION":"15.61760387","ELEMENT_SET_NO":"999","PERIOD":"92.204","MEAN_ELEMENT_THEORY":"SGP4","OBJECT_NAME":"STARLINK-4146","DECAY_DATE":null,"EPHEMERIS_TYPE":"0","BSTAR":"-0.01323400000000","TIME_SYSTEM":"UTC","LAUNCH_DATE":"2022-07-24","COUNTRY_CODE":"US","EPOCH":"2022-10-20T22:00:00.999936","ARG_OF_PERICENTER":"73.9343","SEMIMAJOR_AXIS":"6760.709","CLASSIFICATION_TYPE":"U","RA_OF_ASC_NODE":"326.1656","RCS_SIZE":"LARGE","REF_FRAME":"TEME","NORAD_CAT_ID":"53294","TLE_LINE2":"2 53294  53.2174 326.1656 0001023  73.9343 258.7097 15.61760387  1307","MEAN_ANOMALY":"258.7097","ECCENTRICITY":"0.00010230","REV_AT_EPOCH":"130","OBJECT_ID":"2022-086BE"},{"APOAPSIS":"541.339","PERIAPSIS":"538.271","SITE":"AFETR","FILE":"3626396","OBJECT_TYPE":"PAYLOAD","TLE_LINE1":"1 53388U 22097A   22293.91667824  .00035326  00000-0  22277-2 0  9999","CENTER_NAME":"EARTH","GP_ID":"215727744","INCLINATION":"53.2155","MEAN_MOTION_DDOT":"0.0000000000000","MEAN_MOTION_DOT":"0.00035326","ELEMENT_SET_NO":"999","MEAN_MOTION":"15.08820437","LAUNCH_DATE":"2022-08-10","TIME_SYSTEM":"UTC","EPHEMERIS_TYPE":"0","BSTAR":"0.00222770000000","DECAY_DATE":null,"OBJECT_NAME":"STARLINK-4522","MEAN_ELEMENT_THEORY":"SGP4","PERIOD":"95.439","COUNTRY_CODE":"US","RCS_SIZE":"LARGE","REF_FRAME":"TEME","CLASSIFICATION_TYPE":"U","RA_OF_ASC_NODE":"271.7362","SEMIMAJOR_AXIS":"6917.940","ARG_OF_PERICENTER":"35.8266","EPOCH":"2022-10-20T22:00:00.999936","OBJECT_ID":"2022-097A","REV_AT_EPOCH":"130","ECCENTRICITY":"0.00022170","MEAN_ANOMALY":"150.5796","TLE_LINE2":"2 53388  53.2155 271.7362 0002217  35.8266 150.5796 15.08820437  1305","NORAD_CAT_ID":"53388"},{"TIME_SYSTEM":"UTC","LAUNCH_DATE":"2022-08-10","BSTAR":"0.00226450000000","EPHEMERIS_TYPE":"0","PERIOD":"95.439","MEAN_ELEMENT_THEORY":"SGP4","OBJECT_NAME":"STARLINK-4523","DECAY_DATE":null,"COUNTRY_CODE":"US","REF_FRAME":"TEME","RCS_SIZE":"LARGE","CLASSIFICATION_TYPE":"U","RA_OF_ASC_NODE":"271.7252","SEMIMAJOR_AXIS":"6917.962","EPOCH":"2022-10-20T22:00:00.999936","ARG_OF_PERICENTER":"40.9754","OBJECT_ID":"2022-097B","ECCENTRICITY":"0.00021280","REV_AT_EPOCH":"130","TLE_LINE2":"2 53389  53.2157 271.7252 0002128  40.9754 185.4254 15.08813266  1304","NORAD_CAT_ID":"53389","MEAN_ANOMALY":"185.4254","PERIAPSIS":"538.355","APOAPSIS":"541.299","FILE":"3626396","SITE":"AFETR","OBJECT_TYPE":"PAYLOAD","TLE_LINE1":"1 53389U 22097B   22293.91667824  .00035910  00000-0  22645-2 0  9998","GP_ID":"215728470","CENTER_NAME":"EARTH","INCLINATION":"53.2157","MEAN_MOTION_DDOT":"0.0000000000000","MEAN_MOTION_DOT":"0.00035910","ELEMENT_SET_NO":"999","MEAN_MOTION":"15.08813266"},{"COUNTRY_CODE":"US","TIME_SYSTEM":"UTC","LAUNCH_DATE":"2022-08-10","MEAN_ELEMENT_THEORY":"SGP4","PERIOD":"95.437","OBJECT_NAME":"STARLINK-4517","DECAY_DATE":null,"EPHEMERIS_TYPE":"0","BSTAR":"0.00110050000000","ECCENTRICITY":"0.00021550","REV_AT_EPOCH":"130","OBJECT_ID":"2022-097C","NORAD_CAT_ID":"53390","TLE_LINE2":"2 53390  53.2164 271.7262 0002155  41.2850 165.1133 15.08841596  1304","MEAN_ANOMALY":"165.1133","RA_OF_ASC_NODE":"271.7262","CLASSIFICATION_TYPE":"U","RCS_SIZE":"LARGE","REF_FRAME":"TEME","ARG_OF_PERICENTER":"41.2850","EPOCH":"2022-10-20T22:00:00.999936","SEMIMAJOR_AXIS":"6917.876","OBJECT_TYPE":"PAYLOAD","TLE_LINE1":"1 53390U 22097C   22293.91667824  .00017271  00000-0  11005-2 0  9998","FILE":"3626396","SITE":"AFETR","CENTER_NAME":"EARTH","GP_ID":"215727889","APOAPSIS":"541.231","PERIAPSIS":"538.250","ELEMENT_SET_NO":"999","MEAN_MOTION":"15.08841596","MEAN_MOTION_DDOT":"0.0000000000000","INCLINATION":"53.2164","MEAN_MOTION_DOT":"0.00017271"}];
